$$SOE
2459580.500000000, A.D. 2022-Jan-01 00:00:00.0000, -2.886863728173569E+08, 8.468951506483939E+07, -1.314004301694737E+07,
2459587.500000000, A.D. 2022-Jan-08 00:00:00.0000, -2.913543500036781E+08, 7.169082023823573E+07, -1.195501859206300E+07,
2459594.500000000, A.D. 2022-Jan-15 00:00:00.0000, -2.935000964718410E+08, 5.856365094347358E+07, -1.074856596843788E+07,
2459601.500000000, A.D. 2022-Jan-22 00:00:00.0000, -2.951155151252085E+08, 4.533068838346323E+07, -9.522692474412614E+06,
2459608.500000000, A.D. 2022-Jan-29 00:00:00.0000, -2.961936567214764E+08, 3.201522628015838E+07, -8.279483499578527E+06,
2459615.500000000, A.D. 2022-Feb-05 00:00:00.0000, -2.967287784094356E+08, 1.864110082897981E+07, -7.021096772834871E+06,
2459622.500000000, A.D. 2022-Feb-12 00:00:00.0000, -2.967163950088555E+08, 5.232613671125656E+06, -5.749756277735768E+06,
2459629.500000000, A.D. 2022-Feb-19 00:00:00.0000, -2.961533236283217E+08, -8.185549301627161E+06, -4.467745516427172E+06,
2459636.500000000, A.D. 2022-Feb-26 00:00:00.0000, -2.950377222442373E+08, -2.158840349486845E+07, -3.177400098092094E+06,
2459643.500000000, A.D. 2022-Mar-05 00:00:00.0000, -2.933691214526408E+08, -3.495075549573443E+07, -1.881099764482025E+06,
2459650.500000000, A.D. 2022-Mar-12 00:00:00.0000, -2.911484486084732E+08, -4.824729664409531E+07, -5.812599349632189E+05,
2459657.500000000, A.D. 2022-Mar-19 00:00:00.0000, -2.883780438115879E+08, -6.145269948245665E+07, 7.196771569669880E+05,
2459664.500000000, A.D. 2022-Mar-26 00:00:00.0000, -2.850616673658479E+08, -7.454171624376805E+07, 2.019251655184396E+06,
2459671.500000000, A.D. 2022-Apr-02 00:00:00.0000, -2.812044984092034E+08, -8.748927852029863E+07, 3.314995505566277E+06,
2459678.500000000, A.D. 2022-Apr-09 00:00:00.0000, -2.768131243144310E+08, -1.002705971483159E+08, 4.604442001841247E+06,
2459685.500000000, A.D. 2022-Apr-16 00:00:00.0000, -2.718955204799403E+08, -1.128612606749499E+08, 5.885135383086182E+06,
2459692.500000000, A.D. 2022-Apr-23 00:00:00.0000, -2.664610218691711E+08, -1.252373303517507E+08, 7.154640594477043E+06,
2459699.500000000, A.D. 2022-Apr-30 00:00:00.0000, -2.605202883845367E+08, -1.373754329605066E+08, 8.410553103930533E+06,
2459706.500000000, A.D. 2022-May-07 00:00:00.0000, -2.540852613648767E+08, -1.492528525508299E+08, 9.650508238220505E+06,
2459713.500000000, A.D. 2022-May-14 00:00:00.0000, -2.471691102940955E+08, -1.608476172067118E+08, 1.087219007017941E+07,
2459720.500000000, A.D. 2022-May-21 00:00:00.0000, -2.397861723313836E+08, -1.721385792975836E+08, 1.207334002230364E+07,
2459727.500000000, A.D. 2022-May-28 00:00:00.0000, -2.319518858065665E+08, -1.831054894663854E+08, 1.325176507509016E+07,
2459734.500000000, A.D. 2022-Jun-04 00:00:00.0000, -2.236827181452216E+08, -1.937290640604917E+08, 1.440534545843187E+07,
2459741.500000000, A.D. 2022-Jun-11 00:00:00.0000, -2.149960888869680E+08, -2.039910455024444E+08, 1.553204175137921E+07,
2459748.500000000, A.D. 2022-Jun-18 00:00:00.0000, -2.059102886115405E+08, -2.138742551941858E+08, 1.662990133648612E+07,
2459755.500000000, A.D. 2022-Jun-25 00:00:00.0000, -1.964443946214652E+08, -2.233626387081739E+08, 1.769706416209319E+07,
2459762.500000000, A.D. 2022-Jul-02 00:00:00.0000, -1.866181841355338E+08, -2.324413031677465E+08, 1.873176776390703E+07,
2459769.500000000, A.D. 2022-Jul-09 00:00:00.0000, -1.764520454866472E+08, -2.410965465905272E+08, 1.973235150423738E+07,
2459776.500000000, A.D. 2022-Jul-16 00:00:00.0000, -1.659668882430635E+08, -2.493158781706878E+08, 2.069726011273973E+07,
2459783.500000000, A.D. 2022-Jul-23 00:00:00.0000, -1.551840552793834E+08, -2.570880295809232E+08, 2.162504673683544E+07,
2459790.500000000, A.D. 2022-Jul-30 00:00:00.0000, -1.441252374930565E+08, -2.644029609013977E+08, 2.251437522955036E+07,
2459797.500000000, A.D. 2022-Aug-06 00:00:00.0000, -1.328123882929365E+08, -2.712518608676841E+08, 2.336402141686437E+07,
2459804.500000000, A.D. 2022-Aug-13 00:00:00.0000, -1.212676393440444E+08, -2.776271390928864E+08, 2.417287367308632E+07,
2459811.500000000, A.D. 2022-Aug-20 00:00:00.0000, -1.095132197248737E+08, -2.835224112319677E+08, 2.493993294167246E+07,
2459818.500000000, A.D. 2022-Aug-27 00:00:00.0000, -9.757137893786594E+07, -2.889324783235271E+08, 2.566431217562985E+07,
2459825.500000000, A.D. 2022-Sep-03 00:00:00.0000, -8.546431395258096E+07, -2.938533009614021E+08, 2.634523520916009E+07,
2459832.500000000, A.D. 2022-Sep-10 00:00:00.0000, -7.321410053737253E+07, -2.982819688391598E+08, 2.698203510088108E+07,
2459839.500000000, A.D. 2022-Sep-17 00:00:00.0000, -6.084262911935316E+07, -3.022166662516744E+08, 2.757415199593236E+07,
2459846.500000000, A.D. 2022-Sep-24 00:00:00.0000, -4.837154530897513E+07, -3.056566341884406E+08, 2.812113054971285E+07,
2459853.500000000, A.D. 2022-Oct-01 00:00:00.0000, -3.582219497527881E+07, -3.086021296141340E+08, 2.862261694205207E+07,
2459860.500000000, A.D. 2022-Oct-08 00:00:00.0000, -2.321557352346475E+07, -3.110543819700462E+08, 2.907835553882504E+07,
2459867.500000000, A.D. 2022-Oct-15 00:00:00.0000, -1.057228030484719E+07, -3.130155462289549E+08, 2.948818543465804E+07,
2459874.500000000, A.D. 2022-Oct-22 00:00:00.0000, 2.087519715997454E+06, -3.144886546884858E+08, 2.985203698701723E+07,
2459881.500000000, A.D. 2022-Oct-29 00:00:00.0000, 1.474412964087699E+07, -3.154775705663782E+08, 3.016992794616750E+07,
2459888.500000000, A.D. 2022-Nov-05 00:00:00.0000, 2.737835191011711E+07, -3.159869410954713E+08, 3.044195925655788E+07,
2459895.500000000, A.D. 2022-Nov-12 00:00:00.0000, 3.997151538098380E+07, -3.160221492525745E+08, 3.066831085516207E+07,
2459902.500000000, A.D. 2022-Nov-19 00:00:00.0000, 5.250549769868403E+07, -3.155892654361465E+08, 3.084923749330840E+07,
2459909.500000000, A.D. 2022-Nov-26 00:00:00.0000, 6.496274344789658E+07, -3.146949998111789E+08, 3.098506456071916E+07,
2459916.500000000, A.D. 2022-Dec-03 00:00:00.0000, 7.732627848913100E+07, -3.133466556127165E+08, 3.107618392681980E+07,
2459923.500000000, A.D. 2022-Dec-10 00:00:00.0000, 8.957972077199909E+07, -3.115520836250948E+08, 3.112304982250638E+07,
2459930.500000000, A.D. 2022-Dec-17 00:00:00.0000, 1.017072879058070E+08, -3.093196380545571E+08, 3.112617477835475E+07,
2459937.500000000, A.D. 2022-Dec-24 00:00:00.0000, 1.136938018627535E+08, -3.066581340194070E+08, 3.108612562104440E+07,
2459944.500000000, A.D. 2022-Dec-31 00:00:00.0000, 1.255246914422720E+08, -3.035768066848425E+08, 3.100351952092668E+07,
2459951.500000000, A.D. 2023-Jan-07 00:00:00.0000, 1.371859928849820E+08, -3.000852711950673E+08, 3.087902017532206E+07,
2459958.500000000, A.D. 2023-Jan-14 00:00:00.0000, 1.486643469211679E+08, -2.961934829967377E+08, 3.071333436394536E+07,
2459965.500000000, A.D. 2023-Jan-21 00:00:00.0000, 1.599469918458158E+08, -2.919117017866852E+08, 3.050720868749985E+07,
2459972.500000000, A.D. 2023-Jan-28 00:00:00.0000, 1.710217565145435E+08, -2.872504593122469E+08, 3.026142614437497E+07,
2459979.500000000, A.D. 2023-Feb-04 00:00:00.0000, 1.818770532685220E+08, -2.822205280095023E+08, 2.997680281712922E+07,
2459986.500000000, A.D. 2023-Feb-11 00:00:00.0000, 1.925018691976676E+08, -2.768328906680827E+08, 2.965418482064407E+07,
2459993.500000000, A.D. 2023-Feb-18 00:00:00.0000, 2.028857558708645E+08, -2.710987119248718E+08, 2.929444545168625E+07,
2460000.500000000, A.D. 2023-Feb-25 00:00:00.0000, 2.130188179753840E+08, -2.650293117151863E+08, 2.889848250251842E+07,
2460007.500000000, A.D. 2023-Mar-04 00:00:00.0000, 2.228917011336690E+08, -2.586361406196752E+08, 2.846721572967620E+07,
2460014.500000000, A.D. 2023-Mar-11 00:00:00.0000, 2.324955790778382E+08, -2.519307570550336E+08, 2.800158447315048E+07,
2460021.500000000, A.D. 2023-Mar-18 00:00:00.0000, 2.418221403666469E+08, -2.449248062982922E+08, 2.750254541408096E+07,
2460028.500000000, A.D. 2023-Mar-25 00:00:00.0000, 2.508635749745408E+08, -2.376300013250796E+08, 2.697107044417628E+07,
2460035.500000000, A.D. 2023-Apr-01 00:00:00.0000, 2.596125612948033E+08, -2.300581049994187E+08, 2.640814463634190E+07,
2460042.500000000, A.D. 2023-Apr-08 00:00:00.0000, 2.680622530476183E+08, -2.222209123224554E+08, 2.581476446968956E+07,
2460049.500000000, A.D. 2023-Apr-15 00:00:00.0000, 2.762062638471634E+08, -2.141302337767975E+08, 2.519193642811868E+07,
2460056.500000000, A.D. 2023-Apr-22 00:00:00.0000, 2.840386513149763E+08, -2.057978827428698E+08, 2.454067555065247E+07,
2460063.500000000, A.D. 2023-Apr-29 00:00:00.0000, 2.915539035459296E+08, -1.972356646571222E+08, 2.386200386044563E+07,
2460070.500000000, A.D. 2023-May-06 00:00:00.0000, 2.987469262316352E+08, -1.884553660570268E+08, 2.315694897388880E+07,
2460077.500000000, A.D. 2023-May-13 00:00:00.0000, 3.056130295207244E+08, -1.794687443346064E+08, 2.242654290069675E+07,
2460084.500000000, A.D. 2023-May-20 00:00:00.0000, 3.121479148980928E+08, -1.702875186187176E+08, 2.167182096739875E+07,
2460091.500000000, A.D. 2023-May-27 00:00:00.0000, 3.183476623176729E+08, -1.609233617461386E+08, 2.089382083805267E+07,
2460098.500000000, A.D. 2023-Jun-03 00:00:00.0000, 3.242087176814376E+08, -1.513878932282978E+08, 2.009358162309422E+07,
2460105.500000000, A.D. 2023-Jun-10 00:00:00.0000, 3.297278807178261E+08, -1.416926731630362E+08, 1.927214306717195E+07,
2460112.500000000, A.D. 2023-Jun-17 00:00:00.0000, 3.349022933716462E+08, -1.318491970897890E+08, 1.843054479688249E+07,
2460119.500000000, A.D. 2023-Jun-24 00:00:00.0000, 3.397294290421407E+08, -1.218688916715513E+08, 1.756982559735619E+07,
2460126.500000000, A.D. 2023-Jul-01 00:00:00.0000, 3.442070829375393E+08, -1.117631103147913E+08, 1.669102275672036E+07,
2460133.500000000, A.D. 2023-Jul-08 00:00:00.0000, 3.483333618892108E+08, -1.015431278504725E+08, 1.579517169517361E+07,
2460140.500000000, A.D. 2023-Jul-15 00:00:00.0000, 3.521066723600746E+08, -9.122013705805479E+07, 1.488330576009548E+07,
2460147.500000000, A.D. 2023-Jul-22 00:00:00.0000, 3.555257101710558E+08, -8.080524801797147E+07, 1.395645577420000E+07,
$$EOE